{
  "type": "FeatureCollection",
  "features": [
    {
      "type": "Feature",
      "properties": {
        "norad_id": 29268,
        "name": "ARIRANG-2 (KOMPSAT-2)",
        "group": "resource",
        "lat": 54.33489423563323,
        "lon": 14.499128343765936,
        "alt_km": 681.9445059854506,
        "timestamp": "2025-12-21T09:37:22.304895+00:00",
        "meta_object_name": "ARIRANG-2 (KOMPSAT-2)",
        "meta_object_id": "2006-031A",
        "meta_epoch": "2025-12-21T04:44:05.375616",
        "meta_mean_motion": 14.64500179,
        "meta_eccentricity": 0.0013173,
        "meta_inclination": 97.8253,
        "meta_ra_of_asc_node": 183.2575,
        "meta_arg_of_pericenter": 280.0794,
        "meta_mean_anomaly": 211.6957,
        "meta_ephemeris_type": 0,
        "meta_classification_type": "U",
        "meta_norad_cat_id": 29268,
        "meta_element_set_no": 999,
        "meta_rev_at_epoch": 3542,
        "meta_bstar": 4.1435e-05,
        "meta_mean_motion_dot": 1.75e-06,
        "meta_mean_motion_ddot": 0,
        "tle_line1": "1 29268U 06031A   25355.19728444  .00000175  00000+0  41435-4 0  9999",
        "tle_line2": "2 29268  97.8253 183.2575 0013173 280.0794 211.6957 14.64500179 35421"
      },
      "geometry": {
        "type": "Point",
        "coordinates": [
          14.499128343765936,
          54.33489423563323
        ]
      }
    },
    {
      "type": "Feature",
      "properties": {
        "norad_id": 29709,
        "name": "LAPAN-TUBSAT",
        "group": "resource",
        "lat": -1.0633905251268119,
        "lon": -14.112562658151207,
        "alt_km": 608.5456792743171,
        "timestamp": "2025-12-21T09:37:22.304906+00:00",
        "meta_object_name": "LAPAN-TUBSAT",
        "meta_object_id": "2007-001A",
        "meta_epoch": "2025-12-21T04:46:42.504384",
        "meta_mean_motion": 14.85682337,
        "meta_eccentricity": 0.0013359,
        "meta_inclination": 98.1252,
        "meta_ra_of_asc_node": 345.5295,
        "meta_arg_of_pericenter": 49.319,
        "meta_mean_anomaly": 310.9183,
        "meta_ephemeris_type": 0,
        "meta_classification_type": "U",
        "meta_norad_cat_id": 29709,
        "meta_element_set_no": 999,
        "meta_rev_at_epoch": 2472,
        "meta_bstar": 9.2168e-05,
        "meta_mean_motion_dot": 7.43e-06,
        "meta_mean_motion_ddot": 0,
        "tle_line1": "1 29709U 07001A   25355.19910306  .00000743  00000+0  92168-4 0  9997",
        "tle_line2": "2 29709  98.1252 345.5295 0013359  49.3190 310.9183 14.85682337 24723"
      },
      "geometry": {
        "type": "Point",
        "coordinates": [
          -14.112562658151207,
          -1.0633905251268119
        ]
      }
    },
    {
      "type": "Feature",
      "properties": {
        "norad_id": 31113,
        "name": "HAIYANG-1B",
        "group": "resource",
        "lat": -19.0033378293255,
        "lon": -17.785474890848594,
        "alt_km": 785.1575208304521,
        "timestamp": "2025-12-21T09:37:22.304916+00:00",
        "meta_object_name": "HAIYANG-1B",
        "meta_object_id": "2007-010A",
        "meta_epoch": "2025-12-20T20:17:13.259040",
        "meta_mean_motion": 14.30967553,
        "meta_eccentricity": 0.0013866,
        "meta_inclination": 98.3321,
        "meta_ra_of_asc_node": 338.7888,
        "meta_arg_of_pericenter": 14.9776,
        "meta_mean_anomaly": 345.1816,
        "meta_ephemeris_type": 0,
        "meta_classification_type": "U",
        "meta_norad_cat_id": 31113,
        "meta_element_set_no": 999,
        "meta_rev_at_epoch": 97512,
        "meta_bstar": 4.2056e-05,
        "meta_mean_motion_dot": 6.9e-07,
        "meta_mean_motion_ddot": 0,
        "tle_line1": "1 31113U 07010A   25354.84529235  .00000069  00000+0  42056-4 0  9999",
        "tle_line2": "2 31113  98.3321 338.7888 0013866  14.9776 345.1816 14.30967553975125"
      },
      "geometry": {
        "type": "Point",
        "coordinates": [
          -17.785474890848594,
          -19.0033378293255
        ]
      }
    },
    {
      "type": "Feature",
      "properties": {
        "norad_id": 31598,
        "name": "COSMO-SKYMED 1",
        "group": "resource",
        "lat": -82.10900003344076,
        "lon": -90.40300970989591,
        "alt_km": 588.2344325916829,
        "timestamp": "2025-12-21T09:37:22.304927+00:00",
        "meta_object_name": "COSMO-SKYMED 1",
        "meta_object_id": "2007-023A",
        "meta_epoch": "2025-12-21T03:36:08.057664",
        "meta_mean_motion": 14.95825548,
        "meta_eccentricity": 0.0001555,
        "meta_inclination": 97.8838,
        "meta_ra_of_asc_node": 180.6046,
        "meta_arg_of_pericenter": 82.2669,
        "meta_mean_anomaly": 277.8728,
        "meta_ephemeris_type": 0,
        "meta_classification_type": "U",
        "meta_norad_cat_id": 31598,
        "meta_element_set_no": 999,
        "meta_rev_at_epoch": 316,
        "meta_bstar": 0.00023531,
        "meta_mean_motion_dot": 2.568e-05,
        "meta_mean_motion_ddot": 0,
        "tle_line1": "1 31598U 07023A   25355.15009326  .00002568  00000+0  23531-3 0  9991",
        "tle_line2": "2 31598  97.8838 180.6046 0001555  82.2669 277.8728 14.95825548  3167"
      },
      "geometry": {
        "type": "Point",
        "coordinates": [
          -90.40300970989591,
          -82.10900003344076
        ]
      }
    },
    {
      "type": "Feature",
      "properties": {
        "norad_id": 31698,
        "name": "TERRASAR-X",
        "group": "resource",
        "lat": -66.13214500204725,
        "lon": 17.845815167354633,
        "alt_km": 516.841000896693,
        "timestamp": "2025-12-21T09:37:22.304937+00:00",
        "meta_object_name": "TERRASAR-X",
        "meta_object_id": "2007-026A",
        "meta_epoch": "2025-12-20T11:47:12.844032",
        "meta_mean_motion": 15.19153914,
        "meta_eccentricity": 0.0001874,
        "meta_inclination": 97.4453,
        "meta_ra_of_asc_node": 359.7585,
        "meta_arg_of_pericenter": 92.6145,
        "meta_mean_anomaly": 267.5304,
        "meta_ephemeris_type": 0,
        "meta_classification_type": "U",
        "meta_norad_cat_id": 31698,
        "meta_element_set_no": 999,
        "meta_rev_at_epoch": 2609,
        "meta_bstar": 3.1273e-05,
        "meta_mean_motion_dot": 5.9e-06,
        "meta_mean_motion_ddot": 0,
        "tle_line1": "1 31698U 07026A   25354.49112088  .00000590  00000+0  31273-4 0  9997",
        "tle_line2": "2 31698  97.4453 359.7585 0001874  92.6145 267.5304 15.19153914 26093"
      },
      "geometry": {
        "type": "Point",
        "coordinates": [
          17.845815167354633,
          -66.13214500204725
        ]
      }
    },
    {
      "type": "Feature",
      "properties": {
        "norad_id": 32060,
        "name": "WORLDVIEW-1 (WV-1)",
        "group": "resource",
        "lat": 74.88069781226328,
        "lon": -38.56401842632466,
        "alt_km": 487.2454359667354,
        "timestamp": "2025-12-21T09:37:22.304947+00:00",
        "meta_object_name": "WORLDVIEW-1 (WV-1)",
        "meta_object_id": "2007-041A",
        "meta_epoch": "2025-12-20T18:59:18.403872",
        "meta_mean_motion": 15.23883027,
        "meta_eccentricity": 0.000347,
        "meta_inclination": 97.3825,
        "meta_ra_of_asc_node": 112.1576,
        "meta_arg_of_pericenter": 9.7326,
        "meta_mean_anomaly": 350.3978,
        "meta_ephemeris_type": 0,
        "meta_classification_type": "U",
        "meta_norad_cat_id": 32060,
        "meta_element_set_no": 999,
        "meta_rev_at_epoch": 1570,
        "meta_bstar": 0.00024401,
        "meta_mean_motion_dot": 5.82e-05,
        "meta_mean_motion_ddot": 0,
        "tle_line1": "1 32060U 07041A   25354.79118523  .00005820  00000+0  24401-3 0  9996",
        "tle_line2": "2 32060  97.3825 112.1576 0003470   9.7326 350.3978 15.23883027 15708"
      },
      "geometry": {
        "type": "Point",
        "coordinates": [
          -38.56401842632466,
          74.88069781226328
        ]
      }
    },
    {
      "type": "Feature",
      "properties": {
        "norad_id": 32289,
        "name": "YAOGAN-3",
        "group": "resource",
        "lat": -63.71888971198923,
        "lon": 38.140114968553604,
        "alt_km": 606.0711352464969,
        "timestamp": "2025-12-21T09:37:22.304958+00:00",
        "meta_object_name": "YAOGAN-3",
        "meta_object_id": "2007-055A",
        "meta_epoch": "2025-12-21T05:04:40.539648",
        "meta_mean_motion": 14.89892881,
        "meta_eccentricity": 0.0001111,
        "meta_inclination": 97.8354,
        "meta_ra_of_asc_node": 21.7604,
        "meta_arg_of_pericenter": 75.2167,
        "meta_mean_anomaly": 284.9174,
        "meta_ephemeris_type": 0,
        "meta_classification_type": "U",
        "meta_norad_cat_id": 32289,
        "meta_element_set_no": 999,
        "meta_rev_at_epoch": 97935,
        "meta_bstar": 0.00014027,
        "meta_mean_motion_dot": 1.293e-05,
        "meta_mean_motion_ddot": 0,
        "tle_line1": "1 32289U 07055A   25355.21158032  .00001293  00000+0  14027-3 0  9994",
        "tle_line2": "2 32289  97.8354  21.7604 0001111  75.2167 284.9174 14.89892881979350"
      },
      "geometry": {
        "type": "Point",
        "coordinates": [
          38.140114968553604,
          -63.71888971198923
        ]
      }
    }
  ]
}